[
    {
        "Altitude(m)": 568385.0070191836,
        "Argument of Periapsis(deg)": 0.006622991110713501,
        "Eccentricity": 0.0,
        "Inclination(deg)": 53.0,
        "Latitude(deg)": -44.50141958840735,
        "Longitude(deg)": -103.33861267452922,
        "Mean Anomaly(deg)": -118.99930713242239,
        "RAAN(deg)": 129.99014336852804,
        "Satellite Name": "Starlink Shell 1 586",
        "Satellite Number": 586,
        "Semi-Major Axis(m)": 6931778.249405717,
        "Time(s)": 190
    },
    {
        "Altitude(m)": 568522.9607058106,
        "Argument of Periapsis(deg)": 0.0069715695902247375,
        "Eccentricity": 0.0,
        "Inclination(deg)": 53.0,
        "Latitude(deg)": -44.83725591390189,
        "Longitude(deg)": -102.63999272390986,
        "Mean Anomaly(deg)": -118.37247592886571,
        "RAAN(deg)": 129.98962459845055,
        "Satellite Name": "Starlink Shell 1 586",
        "Satellite Number": 586,
        "Semi-Major Axis(m)": 6931778.249405717,
        "Time(s)": 200
    },
    {
        "Altitude(m)": 568658.7521778835,
        "Argument of Periapsis(deg)": 0.007320148069735974,
        "Eccentricity": 0.0,
        "Inclination(deg)": 53.0,
        "Latitude(deg)": -45.16821849207746,
        "Longitude(deg)": -101.9328113983121,
        "Mean Anomaly(deg)": -117.74564472530896,
        "RAAN(deg)": 129.98910582837308,
        "Satellite Name": "Starlink Shell 1 586",
        "Satellite Number": 586,
        "Semi-Major Axis(m)": 6931778.249405717,
        "Time(s)": 210
    },
    {
        "Altitude(m)": 568792.3279078831,
        "Argument of Periapsis(deg)": 0.007668726549247212,
        "Eccentricity": 0.0,
        "Inclination(deg)": 53.0,
        "Latitude(deg)": -45.49419570414234,
        "Longitude(deg)": -101.216998264535,
        "Mean Anomaly(deg)": -117.11881352175219,
        "RAAN(deg)": 129.98858705829562,
        "Satellite Name": "Starlink Shell 1 586",
        "Satellite Number": 586,
        "Semi-Major Axis(m)": 6931778.249405717,
        "Time(s)": 220
    },
    {
        "Altitude(m)": 568923.6352063393,
        "Argument of Periapsis(deg)": 0.00801730502875845,
        "Eccentricity": 0.0,
        "Inclination(deg)": 53.0,
        "Latitude(deg)": -45.815074413152175,
        "Longitude(deg)": -100.49248917119021,
        "Mean Anomaly(deg)": -116.49198231819551,
        "RAAN(deg)": 129.98806828821813,
        "Satellite Name": "Starlink Shell 1 586",
        "Satellite Number": 586,
        "Semi-Major Axis(m)": 6931778.249405717,
        "Time(s)": 230
    },
    {
        "Altitude(m)": 569052.6222450059,
        "Argument of Periapsis(deg)": 0.008365883508269684,
        "Eccentricity": 0.0,
        "Inclination(deg)": 53.0,
        "Latitude(deg)": -46.13074003439052,
        "Longitude(deg)": -99.75922623603235,
        "Mean Anomaly(deg)": -115.86515111463876,
        "RAAN(deg)": 129.98754951814067,
        "Satellite Name": "Starlink Shell 1 586",
        "Satellite Number": 586,
        "Semi-Major Axis(m)": 6931778.249405717,
        "Time(s)": 240
    },
    {
        "Altitude(m)": 569179.2380795575,
        "Argument of Periapsis(deg)": 0.008714461987780921,
        "Eccentricity": 0.0,
        "Inclination(deg)": 53.0,
        "Latitude(deg)": -46.44107661447446,
        "Longitude(deg)": -99.017159359962,
        "Mean Anomaly(deg)": -115.23831991108213,
        "RAAN(deg)": 129.98703074806318,
        "Satellite Name": "Starlink Shell 1 586",
        "Satellite Number": 586,
        "Semi-Major Axis(m)": 6931778.249405717,
        "Time(s)": 250
    },
    {
        "Altitude(m)": 569303.4326719882,
        "Argument of Periapsis(deg)": 0.009063040467292158,
        "Eccentricity": 0.0,
        "Inclination(deg)": 53.0,
        "Latitude(deg)": -46.74596691957227,
        "Longitude(deg)": -98.26624624050206,
        "Mean Anomaly(deg)": -114.61148870752547,
        "RAAN(deg)": 129.9865119779857,
        "Satellite Name": "Starlink Shell 1 586",
        "Satellite Number": 586,
        "Semi-Major Axis(m)": 6931778.249405717,
        "Time(s)": 260
    },
    {
        "Altitude(m)": 569425.1569125145,
        "Argument of Periapsis(deg)": 0.009411618946803396,
        "Eccentricity": 0.0,
        "Inclination(deg)": 53.0,
        "Latitude(deg)": -47.04529253309802,
        "Longitude(deg)": -97.50645239593429,
        "Mean Anomaly(deg)": -113.98465750396863,
        "RAAN(deg)": 129.98599320790822,
        "Satellite Name": "Starlink Shell 1 586",
        "Satellite Number": 586,
        "Semi-Major Axis(m)": 6931778.249405717,
        "Time(s)": 270
    },
    {
        "Altitude(m)": 569544.3626411107,
        "Argument of Periapsis(deg)": 0.009760197426314633,
        "Eccentricity": 0.0,
        "Inclination(deg)": 53.0,
        "Latitude(deg)": -47.33893396322423,
        "Longitude(deg)": -96.73775271102183,
        "Mean Anomaly(deg)": -113.35782630041193,
        "RAAN(deg)": 129.9854744378308,
        "Satellite Name": "Starlink Shell 1 586",
        "Satellite Number": 586,
        "Semi-Major Axis(m)": 6931778.249405717,
        "Time(s)": 280
    },
    {
        "Altitude(m)": 569661.002668584,
        "Argument of Periapsis(deg)": 0.01010877590582587,
        "Eccentricity": 0.0,
        "Inclination(deg)": 53.0,
        "Latitude(deg)": -47.626770760525645,
        "Longitude(deg)": -95.96013147634217,
        "Mean Anomaly(deg)": -112.73099509685517,
        "RAAN(deg)": 129.9849556677533,
        "Satellite Name": "Starlink Shell 1 586",
        "Satellite Number": 586,
        "Semi-Major Axis(m)": 6931778.249405717,
        "Time(s)": 290
    },
    {
        "Altitude(m)": 569775.0307972297,
        "Argument of Periapsis(deg)": 0.010457354385337106,
        "Eccentricity": 0.0,
        "Inclination(deg)": 53.0,
        "Latitude(deg)": -47.90868164602712,
        "Longitude(deg)": -95.17358243161084,
        "Mean Anomaly(deg)": -112.10416389329852,
        "RAAN(deg)": 129.98443689767583,
        "Satellite Name": "Starlink Shell 1 586",
        "Satellite Number": 586,
        "Semi-Major Axis(m)": 6931778.249405717,
        "Time(s)": 300
    },
    {
        "Altitude(m)": 569886.40184105,
        "Argument of Periapsis(deg)": 0.010805932864848343,
        "Eccentricity": 0.0,
        "Inclination(deg)": 53.0,
        "Latitude(deg)": -48.184544649887755,
        "Longitude(deg)": -94.3781103230835,
        "Mean Anomaly(deg)": -111.47733268974187,
        "RAAN(deg)": 129.98391812759834,
        "Satellite Name": "Starlink Shell 1 586",
        "Satellite Number": 586,
        "Semi-Major Axis(m)": 6931778.249405717,
        "Time(s)": 310
    },
    {
        "Altitude(m)": 569995.0716454824,
        "Argument of Periapsis(deg)": 0.01115451134435958,
        "Eccentricity": 0.0,
        "Inclination(deg)": 53.0,
        "Latitude(deg)": -48.45423726090387,
        "Longitude(deg)": -93.57373094621283,
        "Mean Anomaly(deg)": -110.8505014861851,
        "RAAN(deg)": 129.98339935752088,
        "Satellite Name": "Starlink Shell 1 586",
        "Satellite Number": 586,
        "Semi-Major Axis(m)": 6931778.249405717,
        "Time(s)": 320
    },
    {
        "Altitude(m)": 570100.9971067038,
        "Argument of Periapsis(deg)": 0.011503089823870818,
        "Eccentricity": 0.0,
        "Inclination(deg)": 53.0,
        "Latitude(deg)": -48.71763658695533,
        "Longitude(deg)": -92.76047118307459,
        "Mean Anomaly(deg)": -110.22367028262839,
        "RAAN(deg)": 129.9828805874434,
        "Satellite Name": "Starlink Shell 1 586",
        "Satellite Number": 586,
        "Semi-Major Axis(m)": 6931778.249405717,
        "Time(s)": 330
    },
    {
        "Altitude(m)": 570204.1361904483,
        "Argument of Periapsis(deg)": 0.011851668303382053,
        "Eccentricity": 0.0,
        "Inclination(deg)": 53.0,
        "Latitude(deg)": -48.97461952645631,
        "Longitude(deg)": -91.93837054379186,
        "Mean Anomaly(deg)": -109.59683907907159,
        "RAAN(deg)": 129.98236181736596,
        "Satellite Name": "Starlink Shell 1 586",
        "Satellite Number": 586,
        "Semi-Major Axis(m)": 6931778.249405717,
        "Time(s)": 340
    },
    {
        "Altitude(m)": 570304.4479503562,
        "Argument of Periapsis(deg)": 0.012200246782893292,
        "Eccentricity": 0.0,
        "Inclination(deg)": 53.0,
        "Latitude(deg)": -49.225062950800904,
        "Longitude(deg)": -91.10748118229101,
        "Mean Anomaly(deg)": -108.97000787551491,
        "RAAN(deg)": 129.98184304728846,
        "Satellite Name": "Starlink Shell 1 586",
        "Satellite Number": 586,
        "Semi-Major Axis(m)": 6931778.249405717,
        "Time(s)": 350
    },
    {
        "Altitude(m)": 570401.8925458195,
        "Argument of Periapsis(deg)": 0.012548825262404526,
        "Eccentricity": 0.0,
        "Inclination(deg)": 53.0,
        "Latitude(deg)": -49.468843897715395,
        "Longitude(deg)": -90.26786789508128,
        "Mean Anomaly(deg)": -108.34317667195826,
        "RAAN(deg)": 129.981324277211,
        "Satellite Name": "Starlink Shell 1 586",
        "Satellite Number": 586,
        "Semi-Major Axis(m)": 6931778.249405717,
        "Time(s)": 360
    },
    {
        "Altitude(m)": 570496.431259373,
        "Argument of Periapsis(deg)": 0.012897403741915765,
        "Eccentricity": 0.0,
        "Inclination(deg)": 53.0,
        "Latitude(deg)": -49.7058397753424,
        "Longitude(deg)": -89.41960961152166,
        "Mean Anomaly(deg)": -107.71634546840151,
        "RAAN(deg)": 129.9808055071335,
        "Satellite Name": "Starlink Shell 1 586",
        "Satellite Number": 586,
        "Semi-Major Axis(m)": 6931778.249405717,
        "Time(s)": 370
    }
]